KINEIS-2D               
1 62930U 25028C   26195.71637765  .00000809  00000+0  12544-3 0  9997
2 62930  97.9273 247.6313 0004729 110.9801 249.1915 14.75768155 76774
KINEIS-2E               
1 62931U 25028D   26195.79663918  .00000700  00000+0  10622-3 0  9990
2 62931  97.8942 246.8412 0002138  95.2875 264.8580 14.77086911 76852
KINEIS-2A               
1 62932U 25028E   26195.93819692  .00000655  00000+0  10884-3 0  9998
2 62932  98.1288 251.3673 0006014  84.4118 275.7776 14.73450284 76691
KINEIS-2B               
1 62934U 25028G   26195.71184499  .00000634  00000+0  10536-3 0  9997
2 62934  97.9655 248.0733 0004865  75.0691 285.1056 14.73450553 76710
KINEIS-4E               
1 63300U 25056A   26195.90974867  .00000733  00000+0  12359-3 0  9998
2 63300  97.9068 319.0400 0002982  86.5463 273.6085 14.72302418 71206
KINEIS-4C               
1 63301U 25056B   26195.92213274  .00000771  00000+0  12961-3 0  9990
2 63301  97.9121 319.3009 0002765 213.0160 147.0875 14.72324341 71216
KINEIS-4D               
1 63302U 25056C   26195.92527862  .00000771  00000+0  12934-3 0  9992
2 63302  97.9043 319.2773 0001482 217.1701 142.9404 14.72426778 71217
KINEIS-4A               
1 63303U 25056D   26195.96061975  .00000747  00000+0  12580-3 0  9995
2 63303  97.9137 319.2629 0002056 153.1275 207.0040 14.72333770 71213
KINEIS-4B               
1 63304U 25056E   26195.94334372  .00000749  00000+0  12604-3 0  9997
2 63304  97.9148 319.3033 0005272 193.6178 166.4889 14.72328238 71201
