{"fetched_at":"2026-07-15T06:36:12.142Z","source":"https://celestrak.org/NORAD/elements/gp.php?NAME=KINEIS&FORMAT=JSON","constellation":"kineis","records":[{"OBJECT_NAME":"KINEIS-2D","OBJECT_ID":"2025-028C","EPOCH":"2026-07-14T17:11:35.028960","CLASSIFICATION_TYPE":"U","MEAN_MOTION":14.75768155,"ECCENTRICITY":0.00047298,"INCLINATION":97.9273,"RA_OF_ASC_NODE":247.6313,"ARG_OF_PERICENTER":110.9801,"MEAN_ANOMALY":249.1915,"EPHEMERIS_TYPE":0,"NORAD_CAT_ID":62930,"ELEMENT_SET_NO":999,"REV_AT_EPOCH":7677,"BSTAR":0.00012544326,"MEAN_MOTION_DOT":0.00000809,"MEAN_MOTION_DDOT":0},{"OBJECT_NAME":"KINEIS-2E","OBJECT_ID":"2025-028D","EPOCH":"2026-07-14T19:07:09.625152","CLASSIFICATION_TYPE":"U","MEAN_MOTION":14.77086911,"ECCENTRICITY":0.00021389,"INCLINATION":97.8942,"RA_OF_ASC_NODE":246.8412,"ARG_OF_PERICENTER":95.2875,"MEAN_ANOMALY":264.858,"EPHEMERIS_TYPE":0,"NORAD_CAT_ID":62931,"ELEMENT_SET_NO":999,"REV_AT_EPOCH":7685,"BSTAR":0.00010622075,"MEAN_MOTION_DOT":0.000007,"MEAN_MOTION_DDOT":0},{"OBJECT_NAME":"KINEIS-2A","OBJECT_ID":"2025-028E","EPOCH":"2026-07-14T22:31:00.213888","CLASSIFICATION_TYPE":"U","MEAN_MOTION":14.73450284,"ECCENTRICITY":0.00060147,"INCLINATION":98.1288,"RA_OF_ASC_NODE":251.3673,"ARG_OF_PERICENTER":84.4118,"MEAN_ANOMALY":275.7776,"EPHEMERIS_TYPE":0,"NORAD_CAT_ID":62932,"ELEMENT_SET_NO":999,"REV_AT_EPOCH":7669,"BSTAR":0.00010884341,"MEAN_MOTION_DOT":0.00000655,"MEAN_MOTION_DDOT":0},{"OBJECT_NAME":"KINEIS-2B","OBJECT_ID":"2025-028G","EPOCH":"2026-07-14T17:05:03.407136","CLASSIFICATION_TYPE":"U","MEAN_MOTION":14.73450553,"ECCENTRICITY":0.00048654,"INCLINATION":97.9655,"RA_OF_ASC_NODE":248.0733,"ARG_OF_PERICENTER":75.0691,"MEAN_ANOMALY":285.1056,"EPHEMERIS_TYPE":0,"NORAD_CAT_ID":62934,"ELEMENT_SET_NO":999,"REV_AT_EPOCH":7671,"BSTAR":0.00010535753,"MEAN_MOTION_DOT":0.00000634,"MEAN_MOTION_DDOT":0},{"OBJECT_NAME":"KINEIS-4E","OBJECT_ID":"2025-056A","EPOCH":"2026-07-14T21:50:02.285088","CLASSIFICATION_TYPE":"U","MEAN_MOTION":14.72302418,"ECCENTRICITY":0.00029829,"INCLINATION":97.9068,"RA_OF_ASC_NODE":319.04,"ARG_OF_PERICENTER":86.5463,"MEAN_ANOMALY":273.6085,"EPHEMERIS_TYPE":0,"NORAD_CAT_ID":63300,"ELEMENT_SET_NO":999,"REV_AT_EPOCH":7120,"BSTAR":0.00012359228,"MEAN_MOTION_DOT":0.00000733,"MEAN_MOTION_DDOT":0},{"OBJECT_NAME":"KINEIS-4C","OBJECT_ID":"2025-056B","EPOCH":"2026-07-14T22:07:52.268736","CLASSIFICATION_TYPE":"U","MEAN_MOTION":14.72324341,"ECCENTRICITY":0.00027657,"INCLINATION":97.9121,"RA_OF_ASC_NODE":319.3009,"ARG_OF_PERICENTER":213.016,"MEAN_ANOMALY":147.0875,"EPHEMERIS_TYPE":0,"NORAD_CAT_ID":63301,"ELEMENT_SET_NO":999,"REV_AT_EPOCH":7121,"BSTAR":0.0001296114,"MEAN_MOTION_DOT":0.00000771,"MEAN_MOTION_DDOT":0},{"OBJECT_NAME":"KINEIS-4D","OBJECT_ID":"2025-056C","EPOCH":"2026-07-14T22:12:24.072768","CLASSIFICATION_TYPE":"U","MEAN_MOTION":14.72426778,"ECCENTRICITY":0.00014827,"INCLINATION":97.9043,"RA_OF_ASC_NODE":319.2773,"ARG_OF_PERICENTER":217.1701,"MEAN_ANOMALY":142.9404,"EPHEMERIS_TYPE":0,"NORAD_CAT_ID":63302,"ELEMENT_SET_NO":999,"REV_AT_EPOCH":7121,"BSTAR":0.00012933658,"MEAN_MOTION_DOT":0.00000771,"MEAN_MOTION_DDOT":0},{"OBJECT_NAME":"KINEIS-4A","OBJECT_ID":"2025-056D","EPOCH":"2026-07-14T23:03:17.546400","CLASSIFICATION_TYPE":"U","MEAN_MOTION":14.7233377,"ECCENTRICITY":0.00020561,"INCLINATION":97.9137,"RA_OF_ASC_NODE":319.2629,"ARG_OF_PERICENTER":153.1275,"MEAN_ANOMALY":207.004,"EPHEMERIS_TYPE":0,"NORAD_CAT_ID":63303,"ELEMENT_SET_NO":999,"REV_AT_EPOCH":7121,"BSTAR":0.00012579928,"MEAN_MOTION_DOT":0.00000747,"MEAN_MOTION_DDOT":0},{"OBJECT_NAME":"KINEIS-4B","OBJECT_ID":"2025-056E","EPOCH":"2026-07-14T22:38:24.897408","CLASSIFICATION_TYPE":"U","MEAN_MOTION":14.72328238,"ECCENTRICITY":0.00052728,"INCLINATION":97.9148,"RA_OF_ASC_NODE":319.3033,"ARG_OF_PERICENTER":193.6178,"MEAN_ANOMALY":166.4889,"EPHEMERIS_TYPE":0,"NORAD_CAT_ID":63304,"ELEMENT_SET_NO":999,"REV_AT_EPOCH":7120,"BSTAR":0.00012603701,"MEAN_MOTION_DOT":0.00000749,"MEAN_MOTION_DDOT":0}]}
